{
  "norad_id": 55973,
  "name": "TIANMU-1 03",
  "history": [
    {
      "epoch": "2026-03-28T22:14:10.707648Z",
      "apogee_km": 434.0530699168403,
      "perigee_km": 429.4155475555908,
      "latitude_deg": 8.223825617659216e-06,
      "longitude_deg": 99.02373507713918,
      "height_km": 433.30040272297526,
      "semi_major_axis_km": 6809.871308736215,
      "eccentricity": 0.0003405,
      "inclination_deg": 97.5195,
      "raan_deg": 258.9083,
      "arg_perigee_deg": 48.0499,
      "mean_anomaly_deg": 312.1039,
      "mean_motion_rev_day": 15.44878769
    },
    {
      "epoch": "2026-03-29T04:27:15.842592Z",
      "apogee_km": 434.0066675535345,
      "perigee_km": 429.3773457947973,
      "latitude_deg": 7.702890601530486e-05,
      "longitude_deg": 5.765362504075607,
      "height_km": 433.2596330410999,
      "semi_major_axis_km": 6809.829006674166,
      "eccentricity": 0.0003399,
      "inclination_deg": 97.5195,
      "raan_deg": 259.1767,
      "arg_perigee_deg": 48.009,
      "mean_anomaly_deg": 312.1448,
      "mean_motion_rev_day": 15.44893164
    },
    {
      "epoch": "2026-03-30T05:19:34.739040Z",
      "apogee_km": 433.84101263072534,
      "perigee_km": 429.28123876575773,
      "latitude_deg": -1.979195192407959e-05,
      "longitude_deg": -7.261912597782896,
      "height_km": 433.07248360323126,
      "semi_major_axis_km": 6809.698125698241,
      "eccentricity": 0.0003348,
      "inclination_deg": 97.5192,
      "raan_deg": 260.2496,
      "arg_perigee_deg": 45.2473,
      "mean_anomaly_deg": 314.9047,
      "mean_motion_rev_day": 15.44937703
    },
    {
      "epoch": "2026-03-30T06:52:50.830752Z",
      "apogee_km": 433.83431548957196,
      "perigee_km": 429.27073395768366,
      "latitude_deg": -2.690574186766443e-05,
      "longitude_deg": -30.575700200294055,
      "height_km": 433.0439068159693,
      "semi_major_axis_km": 6809.689524723628,
      "eccentricity": 0.00033508,
      "inclination_deg": 97.5193,
      "raan_deg": 260.3167,
      "arg_perigee_deg": 44.583,
      "mean_anomaly_deg": 315.5687,
      "mean_motion_rev_day": 15.4494063
    },
    {
      "epoch": "2026-03-30T13:05:55.069728Z",
      "apogee_km": 433.7785743433251,
      "perigee_km": 429.24865856024826,
      "latitude_deg": 3.952199536158482e-05,
      "longitude_deg": -123.83062880609873,
      "height_km": 432.98452190162396,
      "semi_major_axis_km": 6809.650616451786,
      "eccentricity": 0.00033261,
      "inclination_deg": 97.5192,
      "raan_deg": 260.5848,
      "arg_perigee_deg": 43.3959,
      "mean_anomaly_deg": 316.7551,
      "mean_motion_rev_day": 15.44953871
    },
    {
      "epoch": "2026-03-30T22:25:31.135296Z",
      "apogee_km": 433.69341759189047,
      "perigee_km": 429.2271389290254,
      "latitude_deg": 4.660081833962816e-07,
      "longitude_deg": 96.28827023197033,
      "height_km": 432.93260984960347,
      "semi_major_axis_km": 6809.597278260458,
      "eccentricity": 0.00032794,
      "inclination_deg": 97.5193,
      "raan_deg": 260.987,
      "arg_perigee_deg": 42.574,
      "mean_anomaly_deg": 317.5762,
      "mean_motion_rev_day": 15.44972023
    },
    {
      "epoch": "2026-03-31T20:11:13.916256Z",
      "apogee_km": 433.56120469079724,
      "perigee_km": 429.1432080936902,
      "latitude_deg": 1.4080361710965032e-05,
      "longitude_deg": 129.90508689944093,
      "height_km": 432.76797176734766,
      "semi_major_axis_km": 6809.489206392243,
      "eccentricity": 0.0003244,
      "inclination_deg": 97.5193,
      "raan_deg": 261.9258,
      "arg_perigee_deg": 39.6286,
      "mean_anomaly_deg": 320.5199,
      "mean_motion_rev_day": 15.45008803
    },
    {
      "epoch": "2026-04-01T19:30:10.531296Z",
      "apogee_km": 433.4290871348003,
      "perigee_km": 429.05474212004356,
      "latitude_deg": -5.400120061539112e-05,
      "longitude_deg": 140.2174582025658,
      "height_km": 432.58322134594846,
      "semi_major_axis_km": 6809.378914627422,
      "eccentricity": 0.0003212,
      "inclination_deg": 97.5194,
      "raan_deg": 262.9316,
      "arg_perigee_deg": 35.6985,
      "mean_anomaly_deg": 324.4477,
      "mean_motion_rev_day": 15.4504634
    },
    {
      "epoch": "2026-04-02T20:22:20.251200Z",
      "apogee_km": 433.20207253822355,
      "perigee_km": 428.96673682451274,
      "latitude_deg": -3.763335544606082e-05,
      "longitude_deg": 127.22820868218844,
      "height_km": 432.41290945683664,
      "semi_major_axis_km": 6809.221404681368,
      "eccentricity": 0.000311,
      "inclination_deg": 97.5198,
      "raan_deg": 264.0042,
      "arg_perigee_deg": 32.3285,
      "mean_anomaly_deg": 327.8153,
      "mean_motion_rev_day": 15.4509995
    },
    {
      "epoch": "2026-04-02T21:55:35.728608Z",
      "apogee_km": 433.17211875912653,
      "perigee_km": 428.9482375655698,
      "latitude_deg": 7.966270833717344e-06,
      "longitude_deg": 103.91698073831323,
      "height_km": 432.38999967924724,
      "semi_major_axis_km": 6809.197178162348,
      "eccentricity": 0.00031016,
      "inclination_deg": 97.5198,
      "raan_deg": 264.0713,
      "arg_perigee_deg": 32.148,
      "mean_anomaly_deg": 327.9957,
      "mean_motion_rev_day": 15.45108196
    }
  ]
}